[{"OBJECT_NAME":"ONEWEB-0517","OBJECT_ID":"2022-138Y","EPOCH":"2026-02-24T05:39:05.364000","MEAN_MOTION":13.19725951,"ECCENTRICITY":0.00016069,"INCLINATION":87.9247,"RA_OF_ASC_NODE":327.4601,"ARG_OF_PERICENTER":69.9492,"MEAN_ANOMALY":290.1814,"EPHEMERIS_TYPE":0,"CLASSIFICATION_TYPE":"U","NORAD_CAT_ID":54135,"ELEMENT_SET_NO":999,"REV_AT_EPOCH":16193,"BSTAR":0.00039390923,"MEAN_MOTION_DOT":1.71e-6,"MEAN_MOTION_DDOT":0},{"OBJECT_NAME":"ONEWEB-0518","OBJECT_ID":"2022-138Z","EPOCH":"2026-02-24T06:06:21.970944","MEAN_MOTION":13.19726763,"ECCENTRICITY":0.00016133,"INCLINATION":87.9242,"RA_OF_ASC_NODE":327.4698,"ARG_OF_PERICENTER":84.1102,"MEAN_ANOMALY":276.0215,"EPHEMERIS_TYPE":0,"CLASSIFICATION_TYPE":"U","NORAD_CAT_ID":54136,"ELEMENT_SET_NO":999,"REV_AT_EPOCH":16193,"BSTAR":0.00028938645,"MEAN_MOTION_DOT":1.29e-6,"MEAN_MOTION_DDOT":0},{"OBJECT_NAME":"ONEWEB-0519","OBJECT_ID":"2022-138AA","EPOCH":"2026-02-24T06:42:46.655424","MEAN_MOTION":13.19725372,"ECCENTRICITY":0.00016079,"INCLINATION":87.925,"RA_OF_ASC_NODE":327.4432,"ARG_OF_PERICENTER":72.2685,"MEAN_ANOMALY":287.8623,"EPHEMERIS_TYPE":0,"CLASSIFICATION_TYPE":"U","NORAD_CAT_ID":54137,"ELEMENT_SET_NO":999,"REV_AT_EPOCH":16194,"BSTAR":-2.781288e-5,"MEAN_MOTION_DOT":2.0e-8,"MEAN_MOTION_DDOT":0},{"OBJECT_NAME":"ONEWEB-0520","OBJECT_ID":"2022-138AB","EPOCH":"2026-02-24T05:43:38.178912","MEAN_MOTION":13.19724909,"ECCENTRICITY":0.00015852,"INCLINATION":87.9251,"RA_OF_ASC_NODE":327.4578,"ARG_OF_PERICENTER":87.3095,"MEAN_ANOMALY":272.8219,"EPHEMERIS_TYPE":0,"CLASSIFICATION_TYPE":"U","NORAD_CAT_ID":54138,"ELEMENT_SET_NO":999,"REV_AT_EPOCH":16192,"BSTAR":0.00026184582,"MEAN_MOTION_DOT":1.18e-6,"MEAN_MOTION_DDOT":0},{"OBJECT_NAME":"ONEWEB-0521","OBJECT_ID":"2022-138AC","EPOCH":"2026-02-24T06:31:23.686752","MEAN_MOTION":13.19725083,"ECCENTRICITY":0.00016895,"INCLINATION":87.9251,"RA_OF_ASC_NODE":327.4349,"ARG_OF_PERICENTER":70.3901,"MEAN_ANOMALY":289.7415,"EPHEMERIS_TYPE":0,"CLASSIFICATION_TYPE":"U","NORAD_CAT_ID":54139,"ELEMENT_SET_NO":999,"REV_AT_EPOCH":16187,"BSTAR":0.00019036818,"MEAN_MOTION_DOT":8.9e-7,"MEAN_MOTION_DDOT":0},{"OBJECT_NAME":"ONEWEB-0522","OBJECT_ID":"2022-138AD","EPOCH":"2026-02-24T06:01:49.886112","MEAN_MOTION":13.19725745,"ECCENTRICITY":0.0001596,"INCLINATION":87.9253,"RA_OF_ASC_NODE":327.44,"ARG_OF_PERICENTER":82.037,"MEAN_ANOMALY":278.0944,"EPHEMERIS_TYPE":0,"CLASSIFICATION_TYPE":"U","NORAD_CAT_ID":54140,"ELEMENT_SET_NO":999,"REV_AT_EPOCH":16191,"BSTAR":0.00013803257,"MEAN_MOTION_DOT":6.8e-7,"MEAN_MOTION_DDOT":0},{"OBJECT_NAME":"ONEWEB-0523","OBJECT_ID":"2022-138AE","EPOCH":"2026-02-24T05:29:12.654816","MEAN_MOTION":13.20772268,"ECCENTRICITY":0.00022708,"INCLINATION":87.9192,"RA_OF_ASC_NODE":296.9902,"ARG_OF_PERICENTER":67.6634,"MEAN_ANOMALY":292.474,"EPHEMERIS_TYPE":0,"CLASSIFICATION_TYPE":"U","NORAD_CAT_ID":54141,"ELEMENT_SET_NO":999,"REV_AT_EPOCH":16439,"BSTAR":0.00026930929,"MEAN_MOTION_DOT":1.22e-6,"MEAN_MOTION_DDOT":0},{"OBJECT_NAME":"ONEWEB-0524","OBJECT_ID":"2022-138AF","EPOCH":"2026-02-24T05:13:18.421248","MEAN_MOTION":13.20771024,"ECCENTRICITY":0.00025214,"INCLINATION":87.9185,"RA_OF_ASC_NODE":296.9927,"ARG_OF_PERICENTER":88.0359,"MEAN_ANOMALY":272.1063,"EPHEMERIS_TYPE":0,"CLASSIFICATION_TYPE":"U","NORAD_CAT_ID":54142,"ELEMENT_SET_NO":999,"REV_AT_EPOCH":16439,"BSTAR":-4.4686215e-5,"MEAN_MOTION_DOT":-5.0e-8,"MEAN_MOTION_DDOT":0},{"OBJECT_NAME":"ONEWEB-0525","OBJECT_ID":"2022-138AG","EPOCH":"2026-02-24T06:29:07.282752","MEAN_MOTION":13.19724852,"ECCENTRICITY":0.00015805,"INCLINATION":87.9246,"RA_OF_ASC_NODE":327.4519,"ARG_OF_PERICENTER":87.1864,"MEAN_ANOMALY":272.945,"EPHEMERIS_TYPE":0,"CLASSIFICATION_TYPE":"U","NORAD_CAT_ID":54143,"ELEMENT_SET_NO":999,"REV_AT_EPOCH":16193,"BSTAR":0.00023056714,"MEAN_MOTION_DOT":1.05e-6,"MEAN_MOTION_DDOT":0},{"OBJECT_NAME":"ONEWEB-0526","OBJECT_ID":"2022-138AH","EPOCH":"2026-02-24T05:27:40.879872","MEAN_MOTION":13.1972281,"ECCENTRICITY":0.00017417,"INCLINATION":87.9255,"RA_OF_ASC_NODE":327.4541,"ARG_OF_PERICENTER":83.44,"MEAN_ANOMALY":276.6931,"EPHEMERIS_TYPE":0,"CLASSIFICATION_TYPE":"U","NORAD_CAT_ID":54144,"ELEMENT_SET_NO":999,"REV_AT_EPOCH":16190,"BSTAR":0.00016450152,"MEAN_MOTION_DOT":7.9e-7,"MEAN_MOTION_DDOT":0},{"OBJECT_NAME":"ONEWEB-0529","OBJECT_ID":"2022-138AJ","EPOCH":"2026-02-24T05:32:15.704448","MEAN_MOTION":13.19724808,"ECCENTRICITY":0.00016434,"INCLINATION":87.9244,"RA_OF_ASC_NODE":327.4732,"ARG_OF_PERICENTER":87.5807,"MEAN_ANOMALY":272.5514,"EPHEMERIS_TYPE":0,"CLASSIFICATION_TYPE":"U","NORAD_CAT_ID":54145,"ELEMENT_SET_NO":999,"REV_AT_EPOCH":16192,"BSTAR":0.00021511586,"MEAN_MOTION_DOT":9.9e-7,"MEAN_MOTION_DDOT":0},{"OBJECT_NAME":"ONEWEB-0531","OBJECT_ID":"2022-138AK","EPOCH":"2026-02-24T03:03:45.310464","MEAN_MOTION":13.20772107,"ECCENTRICITY":0.00025252,"INCLINATION":87.9191,"RA_OF_ASC_NODE":297.0071,"ARG_OF_PERICENTER":73.9249,"MEAN_ANOMALY":286.2162,"EPHEMERIS_TYPE":0,"CLASSIFICATION_TYPE":"U","NORAD_CAT_ID":54146,"ELEMENT_SET_NO":999,"REV_AT_EPOCH":16438,"BSTAR":0.00016756375,"MEAN_MOTION_DOT":8.1e-7,"MEAN_MOTION_DDOT":0},{"OBJECT_NAME":"ONEWEB-0535","OBJECT_ID":"2022-138AL","EPOCH":"2026-02-24T06:20:01.857696","MEAN_MOTION":13.1972573,"ECCENTRICITY":0.00019359,"INCLINATION":87.925,"RA_OF_ASC_NODE":327.4414,"ARG_OF_PERICENTER":69.6044,"MEAN_ANOMALY":290.5297,"EPHEMERIS_TYPE":0,"CLASSIFICATION_TYPE":"U","NORAD_CAT_ID":54147,"ELEMENT_SET_NO":999,"REV_AT_EPOCH":16194,"BSTAR":0.00027834598,"MEAN_MOTION_DOT":1.24e-6,"MEAN_MOTION_DDOT":0},{"OBJECT_NAME":"ONEWEB-0536","OBJECT_ID":"2022-138AM","EPOCH":"2026-02-24T04:34:39.845280","MEAN_MOTION":13.20772553,"ECCENTRICITY":0.00026288,"INCLINATION":87.9181,"RA_OF_ASC_NODE":297.0306,"ARG_OF_PERICENTER":76.4504,"MEAN_ANOMALY":283.6922,"EPHEMERIS_TYPE":0,"CLASSIFICATION_TYPE":"U","NORAD_CAT_ID":54148,"ELEMENT_SET_NO":999,"REV_AT_EPOCH":16438,"BSTAR":5.269592e-5,"MEAN_MOTION_DOT":3.4e-7,"MEAN_MOTION_DDOT":0},{"OBJECT_NAME":"ONEWEB-0527","OBJECT_ID":"2022-166A","EPOCH":"2026-02-24T01:55:38.186112","MEAN_MOTION":13.21824836,"ECCENTRICITY":0.00016621,"INCLINATION":87.9166,"RA_OF_ASC_NODE":266.5577,"ARG_OF_PERICENTER":90.1215,"MEAN_ANOMALY":270.0109,"EPHEMERIS_TYPE":0,"CLASSIFICATION_TYPE":"U","NORAD_CAT_ID":54642,"ELEMENT_SET_NO":999,"REV_AT_EPOCH":15659,"BSTAR":0.00042692192,"MEAN_MOTION_DOT":1.89e-6,"MEAN_MOTION_DDOT":0},{"OBJECT_NAME":"ONEWEB-0528","OBJECT_ID":"2022-166B","EPOCH":"2026-02-24T02:05:06.837216","MEAN_MOTION":13.21826373,"ECCENTRICITY":0.00015866,"INCLINATION":87.9165,"RA_OF_ASC_NODE":266.5602,"ARG_OF_PERICENTER":91.1587,"MEAN_ANOMALY":268.9729,"EPHEMERIS_TYPE":0,"CLASSIFICATION_TYPE":"U","NORAD_CAT_ID":54643,"ELEMENT_SET_NO":999,"REV_AT_EPOCH":15660,"BSTAR":0.00043277186,"MEAN_MOTION_DOT":1.92e-6,"MEAN_MOTION_DDOT":0}]
