ONEWEB-0517             
1 54135U 22138Y   26055.23547875  .00000171  00000+0  39391-3 0  9999
2 54135  87.9247 327.4601 0001606  69.9492 290.1814 13.19725951161930
ONEWEB-0518             
1 54136U 22138Z   26055.25442096  .00000129  00000+0  28939-3 0  9990
2 54136  87.9242 327.4698 0001613  84.1102 276.0215 13.19726763161937
ONEWEB-0519             
1 54137U 22138AA  26055.27970666  .00000002  00000+0 -27813-4 0  9994
2 54137  87.9250 327.4432 0001607  72.2685 287.8623 13.19725372161949
ONEWEB-0520             
1 54138U 22138AB  26055.23863633  .00000118  00000+0  26185-3 0  9993
2 54138  87.9251 327.4578 0001585  87.3095 272.8219 13.19724909161927
ONEWEB-0521             
1 54139U 22138AC  26055.27180193  .00000089  00000+0  19037-3 0  9996
2 54139  87.9251 327.4349 0001689  70.3901 289.7415 13.19725083161870
ONEWEB-0522             
1 54140U 22138AD  26055.25127183  .00000068  00000+0  13803-3 0  9998
2 54140  87.9253 327.4400 0001596  82.0370 278.0944 13.19725745161917
ONEWEB-0523             
1 54141U 22138AE  26055.22861869  .00000122  00000+0  26931-3 0  9999
2 54141  87.9192 296.9902 0002270  67.6634 292.4740 13.20772268164392
ONEWEB-0524             
1 54142U 22138AF  26055.21757432 -.00000005  00000+0 -44686-4 0  9999
2 54142  87.9185 296.9927 0002521  88.0359 272.1063 13.20771024164394
ONEWEB-0525             
1 54143U 22138AG  26055.27022318  .00000105  00000+0  23057-3 0  9991
2 54143  87.9246 327.4519 0001580  87.1864 272.9450 13.19724852161935
ONEWEB-0526             
1 54144U 22138AH  26055.22755648  .00000079  00000+0  16450-3 0  9995
2 54144  87.9255 327.4541 0001741  83.4400 276.6931 13.19722810161909
ONEWEB-0529             
1 54145U 22138AJ  26055.23073732  .00000099  00000+0  21512-3 0  9991
2 54145  87.9244 327.4732 0001643  87.5807 272.5514 13.19724808161920
ONEWEB-0531             
1 54146U 22138AK  26055.12760776  .00000081  00000+0  16756-3 0  9996
2 54146  87.9191 297.0071 0002525  73.9249 286.2162 13.20772107164380
ONEWEB-0535             
1 54147U 22138AL  26055.26391039  .00000124  00000+0  27835-3 0  9992
2 54147  87.9250 327.4414 0001935  69.6044 290.5297 13.19725730161949
ONEWEB-0536             
1 54148U 22138AM  26055.19073895  .00000034  00000+0  52696-4 0  9996
2 54148  87.9181 297.0306 0002628  76.4504 283.6922 13.20772553164388
ONEWEB-0527             
1 54642U 22166A   26055.08030308  .00000189  00000+0  42692-3 0  9991
2 54642  87.9166 266.5577 0001662  90.1215 270.0109 13.21824836156594
ONEWEB-0528             
1 54643U 22166B   26055.08688469  .00000192  00000+0  43277-3 0  9993
2 54643  87.9165 266.5602 0001586  91.1587 268.9729 13.21826373156605
